NORAD_CAT_ID,OBJECT_NAME,OBJECT_TYPE,EPOCH,MEAN_MOTION,ECCENTRICITY,INCLINATION,RA_OF_ASC_NODE,ARG_OF_PERICENTER,MEAN_ANOMALY,BSTAR,MEAN_MOTION_DOT,MEAN_MOTION_DDOT,TLE_LINE0,TLE_LINE1,TLE_LINE2,SEMIMAJOR_AXIS,PERIOD,APOGEE,PERIGEE,DECAYED
49134.0,STARLINK-3078,PAYLOAD,2023-06-06 20:15:43,14.98336251,0.0003127,69.9996,313.0729,268.2739,91.8062,5.7508e-05,5.93e-06,0.0,0 STARLINK-3078,1 49134U 21082E   23157.84425690  .00000593  00000-0  57508-4 0  9996,2 49134  69.9996 313.0729 0003127 268.2739  91.8062 14.98336251 96368,6950.174,96.107,574.212,569.865,0.0
49134.0,STARLINK-3078,PAYLOAD,2023-06-07 04:16:24,14.98330544,0.0003091,69.9997,312.2317,269.5348,90.5456,-2.0016e-06,-1.17e-06,0.0,0 STARLINK-3078,1 49134U 21082E   23158.17806152 -.00000117  00000-0 -20016-5 0  9998,2 49134  69.9997 312.2317 0003091 269.5348  90.5456 14.98330544 96411,6950.191,96.107,574.205,569.908,0.0
49134.0,STARLINK-3078,PAYLOAD,2023-06-07 09:04:48,14.98326655,0.0003116,69.9996,311.727,269.4319,90.6483,-5.6036e-06,-1.6e-06,0.0,0 STARLINK-3078,1 49134U 21082E   23158.37834416 -.00000160  00000-0 -56036-5 0  9993,2 49134  69.9996 311.7270 0003116 269.4319  90.6483 14.98326655 96449,6950.203,96.107,574.234,569.903,0.0
49134.0,STARLINK-3078,PAYLOAD,2023-06-07 20:17:45,14.98330596,0.0003103,69.9997,310.5486,269.2296,90.8507,-9.3809e-06,-2.05e-06,0.0,0 STARLINK-3078,1 49134U 21082E   23158.84566185 -.00000205  00000-0 -93809-5 0  9999,2 49134  69.9997 310.5486 0003103 269.2296  90.8507 14.98330596 96510,6950.191,96.107,574.213,569.899,0.0
49134.0,STARLINK-3078,PAYLOAD,2023-06-08 12:19:05,14.98331151,0.0003177,70.0001,308.8654,269.3193,90.7602,3.9908e-05,3.83e-06,0.0,0 STARLINK-3078,1 49134U 21082E   23159.51325937  .00000383  00000-0  39908-4 0  9996,2 49134  70.0001 308.8654 0003177 269.3193  90.7602 14.98331151 96618,6950.189,96.107,574.262,569.846,0.0
49134.0,STARLINK-3078,PAYLOAD,2023-06-08 13:55:13,14.98332839,0.0003084,69.9997,308.697,269.5368,90.5438,6.5594e-06,-1.5e-07,0.0,0 STARLINK-3078,1 49134U 21082E   23159.58001931 -.00000015  00000-0  65594-5 0  9992,2 49134  69.9997 308.6970 0003084 269.5368  90.5438 14.98332839 96621,6950.184,96.107,574.193,569.906,0.0
49134.0,STARLINK-3078,PAYLOAD,2023-06-09 10:44:58,14.98329206,0.0003127,69.9998,306.5087,267.0685,93.0116,4.4495e-05,4.38e-06,0.0,0 STARLINK-3078,1 49134U 21082E   23160.44789914  .00000438  00000-0  44495-4 0  9997,2 49134  69.9998 306.5087 0003127 267.0685  93.0116 14.98329206 96750,6950.195,96.107,574.234,569.887,0.0
49134.0,STARLINK-3078,PAYLOAD,2023-06-09 15:33:22,14.98329884,0.0003123,69.9999,306.0037,267.1874,92.8928,5.0202e-05,5.06e-06,0.0,0 STARLINK-3078,1 49134U 21082E   23160.64817861  .00000506  00000-0  50202-4 0  9991,2 49134  69.9999 306.0037 0003123 267.1874  92.8928 14.98329884 96781,6950.193,96.107,574.229,569.888,0.0
49134.0,STARLINK-3078,PAYLOAD,2023-06-10 09:10:51,14.98329308,0.000303,70.0001,304.1531,270.1168,89.9644,-2.5761e-05,-4e-06,0.0,0 STARLINK-3078,1 49134U 21082E   23161.38254149 -.00000400  00000-0 -25761-4 0  9994,2 49134  70.0001 304.1531 0003030 270.1168  89.9644 14.98329308 96898,6950.195,96.107,574.166,569.954,0.0
49134.0,STARLINK-3078,PAYLOAD,2023-06-10 15:35:23,14.98327687,0.0003076,70.0001,303.4795,270.1339,89.9467,-4.5273e-05,-6.33e-06,0.0,0 STARLINK-3078,1 49134U 21082E   23161.64958313 -.00000633  00000-0 -45273-4 0  9995,2 49134  70.0001 303.4795 0003076 270.1339  89.9467 14.98327687 96938,6950.2,96.107,574.203,569.927,0.0
49134.0,STARLINK-3078,PAYLOAD,2023-06-10 18:47:40,14.98328615,0.0003037,70.0002,303.1429,269.5565,90.5246,-3.0541e-05,-4.57e-06,0.0,0 STARLINK-3078,1 49134U 21082E   23161.78310219 -.00000457  00000-0 -30541-4 0  9993,2 49134  70.0002 303.1429 0003037 269.5565  90.5246 14.98328615 96957,6950.197,96.107,574.173,569.951,0.0
49134.0,STARLINK-3078,PAYLOAD,2023-06-11 18:49:40,14.98334149,0.0003148,70.0,300.6179,271.9891,88.0907,4.1347e-05,4e-06,0.0,0 STARLINK-3078,1 49134U 21082E   23162.78449655  .00000400  00000-0  41347-4 0  9993,2 49134  70.0000 300.6179 0003148 271.9891  88.0907 14.98334149 97104,6950.18,96.107,574.233,569.857,0.0
49134.0,STARLINK-3078,PAYLOAD,2023-06-12 02:50:21,14.98328472,0.0003149,70.0,299.7754,273.1122,86.9677,9.4853e-06,2e-07,0.0,0 STARLINK-3078,1 49134U 21082E   23163.11830073  .00000020  00000-0  94853-5 0  9998,2 49134  70.0000 299.7754 0003149 273.1122  86.9677 14.98328472 97151,6950.198,96.107,574.251,569.874,0.0
49134.0,STARLINK-3078,PAYLOAD,2023-06-12 15:39:25,14.9832796,0.0003211,69.9998,298.4285,272.7371,87.342,4.3484e-05,4.26e-06,0.0,0 STARLINK-3078,1 49134U 21082E   23163.65238052  .00000426  00000-0  43484-4 0  9999,2 49134  69.9998 298.4285 0003211 272.7371  87.3420 14.98327960 97231,6950.199,96.107,574.296,569.832,0.0
49134.0,STARLINK-3078,PAYLOAD,2023-06-13 02:52:21,14.98336223,0.000322,69.9999,297.2503,272.7287,87.3503,-8.167e-05,-1.068e-05,0.0,0 STARLINK-3078,1 49134U 21082E   23164.11969848 -.00001068  00000-0 -81670-4 0  9999,2 49134  69.9999 297.2503 0003220 272.7287  87.3503 14.98336223 97300,6950.174,96.107,574.277,569.801,0.0
49134.0,STARLINK-3078,PAYLOAD,2023-06-13 18:53:42,14.98333731,0.0003127,69.9999,295.567,269.8552,90.2249,2.8955e-05,2.53e-06,0.0,0 STARLINK-3078,1 49134U 21082E   23164.78729678  .00000253  00000-0  28955-4 0  9997,2 49134  69.9999 295.5670 0003127 269.8552  90.2249 14.98333731 97406,6950.181,96.107,574.22,569.873,0.0
49134.0,STARLINK-3078,PAYLOAD,2023-06-14 07:42:46,14.98331824,0.0003122,70.0,294.2205,272.4391,87.641,4.424e-05,4.35e-06,0.0,0 STARLINK-3078,1 49134U 21082E   23165.32137708  .00000435  00000-0  44240-4 0  9992,2 49134  70.0000 294.2205 0003122 272.4391  87.6410 14.98331824 97487,6950.187,96.107,574.222,569.882,0.0
49134.0,STARLINK-3078,PAYLOAD,2023-06-14 18:55:43,14.98333292,0.0003104,70.0001,293.0423,272.4,87.6804,5.6061e-05,5.76e-06,0.0,0 STARLINK-3078,1 49134U 21082E   23165.78869496  .00000576  00000-0  56061-4 0  9998,2 49134  70.0001 293.0423 0003104 272.4000  87.6804 14.98333292 97550,6950.183,96.107,574.205,569.89,0.0
49134.0,STARLINK-3078,PAYLOAD,2023-06-15 09:20:56,14.98322575,0.0003374,70.0,291.527,271.397,88.6803,-0.00010245,-1.315e-05,0.0,0 STARLINK-3078,1 49134U 21082E   23166.38954520 -.00001315  00000-0 -10245-3 0  9995,2 49134  70.0000 291.5270 0003374 271.3970  88.6803 14.98322575 97647,6950.216,96.107,574.426,569.736,0.0
49134.0,STARLINK-3078,PAYLOAD,2023-06-15 12:33:12,14.98325765,0.0003216,69.9997,291.1901,271.9046,88.1745,-6.1611e-05,-8.28e-06,0.0,0 STARLINK-3078,1 49134U 21082E   23166.52306280 -.00000828  00000-0 -61611-4 0  9997,2 49134  69.9997 291.1901 0003216 271.9046  88.1745 14.98325765 97667,6950.206,96.107,574.306,569.836,0.0
49134.0,STARLINK-3078,PAYLOAD,2023-06-15 18:57:44,14.98328603,0.000311,69.9999,290.5165,272.2155,87.8648,-1.6157e-05,-2.86e-06,0.0,0 STARLINK-3078,1 49134U 21082E   23166.79010025 -.00000286  00000-0 -16157-4 0  9998,2 49134  69.9999 290.5165 0003110 272.2155  87.8648 14.98328603 97709,6950.197,96.107,574.224,569.901,0.0
49134.0,STARLINK-3078,PAYLOAD,2023-06-16 09:22:56,14.98338391,0.0003475,69.9993,289.0018,268.7873,91.2888,2.7576e-05,2.36e-06,0.0,0 STARLINK-3078,1 49134U 21082E   23167.39093114  .00000236  00000-0  27576-4 0  9995,2 49134  69.9993 289.0018 0003475 268.7873  91.2888 14.98338391 97793,6950.167,96.106,574.447,569.617,0.0
49134.0,STARLINK-3078,PAYLOAD,2023-06-16 14:11:20,14.98338417,0.0002981,69.9994,288.4974,264.8144,95.2675,0.00018277,2.089e-05,0.0,0 STARLINK-3078,1 49134U 21082E   23167.59120653  .00002089  00000-0  18277-3 0  9991,2 49134  69.9994 288.4974 0002981 264.8144  95.2675 14.98338417 97828,6950.167,96.106,574.104,569.96,0.0
49134.0,STARLINK-3078,PAYLOAD,2023-06-16 17:23:35,14.98346997,0.0003543,69.9996,288.1609,268.7257,91.3496,9.2808e-05,1.015e-05,0.0,0 STARLINK-3078,1 49134U 21082E   23167.72472164  .00001015  00000-0  92808-4 0  9994,2 49134  69.9996 288.1609 0003543 268.7257  91.3496 14.98346997 97847,6950.14,96.106,574.468,569.543,0.0
49134.0,STARLINK-3078,PAYLOAD,2023-06-17 01:24:18,14.98315501,0.0003418,69.9994,287.3178,266.6369,93.4399,-0.00029128,-3.566e-05,0.0,0 STARLINK-3078,1 49134U 21082E   23168.05854948 -.00003566  00000-0 -29128-3 0  9994,2 49134  69.9994 287.3178 0003418 266.6369  93.4399 14.98315501 97896,6950.238,96.108,574.478,569.727,0.0
49134.0,STARLINK-3078,PAYLOAD,2023-06-17 09:24:59,14.98308467,0.0003443,69.9994,286.4772,266.4312,93.6453,-9.2472e-05,-1.196e-05,0.0,0 STARLINK-3078,1 49134U 21082E   23168.39235215 -.00001196  00000-0 -92472-4 0  9991,2 49134  69.9994 286.4772 0003443 266.4312  93.6453 14.98308467 97942,6950.259,96.108,574.517,569.732,0.0
49134.0,STARLINK-3078,PAYLOAD,2023-06-17 17:25:39,14.98317348,0.000333,69.9995,285.636,266.4751,93.6027,-6.2212e-05,-8.35e-06,0.0,0 STARLINK-3078,1 49134U 21082E   23168.72614910 -.00000835  00000-0 -62212-4 0  9999,2 49134  69.9995 285.6360 0003330 266.4751  93.6027 14.98317348 97999,6950.232,96.108,574.411,569.783,0.0
49134.0,STARLINK-3078,PAYLOAD,2023-06-18 01:26:19,14.9832338,0.000342,69.9995,284.7944,266.0939,93.9829,-4.0718e-05,-5.79e-06,0.0,0 STARLINK-3078,1 49134U 21082E   23169.05994652 -.00000579  00000-0 -40718-4 0  9992,2 49134  69.9995 284.7944 0003420 266.0939  93.9829 14.98323380 98044,6950.213,96.107,574.455,569.701,0.0
49134.0,STARLINK-3078,PAYLOAD,2023-06-18 07:50:51,14.98325828,0.000367,69.9989,284.1215,265.8141,94.2599,-1.6317e-05,-2.88e-06,0.0,0 STARLINK-3078,1 49134U 21082E   23169.32698432 -.00000288  00000-0 -16317-4 0  9994,2 49134  69.9989 284.1215 0003670 265.8141  94.2599 14.98325828 98082,6950.206,96.107,574.622,569.52,0.0
49134.0,STARLINK-3078,PAYLOAD,2023-06-18 14:15:23,14.98335608,0.000355,69.9993,283.448,268.292,91.7832,-9.7818e-06,-2.1e-06,0.0,0 STARLINK-3078,1 49134U 21082E   23169.59401880 -.00000210  00000-0 -97818-5 0  9993,2 49134  69.9993 283.4480 0003550 268.2920  91.7832 14.98335608 98126,6950.176,96.107,574.508,569.573,0.0
